{"type": "FeatureCollection", "features": [ {"type": "Feature", "properties": {"norad_id": 28659, "name": "DIRECTV 8", "group": "intelsat", "lat": 0.02910798710522958, "lon": 121.39373107041791, "alt_km": 35796.463788900845, "timestamp": "2025-12-08T10:52:02.616956+00:00", "meta": {"OBJECT_NAME": "DIRECTV 8", "OBJECT_ID": "2005-019A", "EPOCH": "2025-12-07T16:29:36.045600", "MEAN_MOTION": 1.00271412, "ECCENTRICITY": 0.00032344, "INCLINATION": 0.0172, "RA_OF_ASC_NODE": 353.7785, "ARG_OF_PERICENTER": 266.4818, "MEAN_ANOMALY": 304.7984, "EPHEMERIS_TYPE": 0, "CLASSIFICATION_TYPE": "U", "NORAD_CAT_ID": 28659, "ELEMENT_SET_NO": 999, "REV_AT_EPOCH": 7515, "BSTAR": 0, "MEAN_MOTION_DOT": 5e-08, "MEAN_MOTION_DDOT": 0}, "tle": {"line1": "1 28659U 05019A   25341.68722275  .00000005  00000+0  00000+0 0  9992", "line2": "2 28659   0.0172 353.7785 0003234 266.4818 304.7984  1.00271412 75158"}}, "geometry": {"type": "Point", "coordinates": [121.39373107041791, 0.02910798710522958]}}, {"type": "Feature", "properties": {"norad_id": 28702, "name": "GALAXY 28 (G-28)", "group": "intelsat", "lat": 2.6514321977093767, "lon": 151.733946776925, "alt_km": 35789.08473625971, "timestamp": "2025-12-08T10:52:02.616969+00:00", "meta": {"OBJECT_NAME": "GALAXY 28 (G-28)", "OBJECT_ID": "2005-022A", "EPOCH": "2025-12-07T21:46:26.744736", "MEAN_MOTION": 1.00271436, "ECCENTRICITY": 0.00026502, "INCLINATION": 2.8063, "RA_OF_ASC_NODE": 81.3385, "ARG_OF_PERICENTER": 177.063, "MEAN_ANOMALY": 56.4479, "EPHEMERIS_TYPE": 0, "CLASSIFICATION_TYPE": "U", "NORAD_CAT_ID": 28702, "ELEMENT_SET_NO": 999, "REV_AT_EPOCH": 5005, "BSTAR": 0, "MEAN_MOTION_DOT": -1.85e-06, "MEAN_MOTION_DDOT": 0}, "tle": {"line1": "1 28702U 05022A   25341.90725399 -.00000185  00000+0  00000+0 0  9990", "line2": "2 28702   2.8063  81.3385 0002650 177.0630  56.4479  1.00271436 50054"}}, "geometry": {"type": "Point", "coordinates": [151.733946776925, 2.6514321977093767]}}, {"type": "Feature", "properties": {"norad_id": 29236, "name": "GALAXY 16 (G-16)", "group": "intelsat", "lat": -0.0007826290097935041, "lon": 141.429194424949, "alt_km": 35793.0796837254, "timestamp": "2025-12-08T10:52:02.616981+00:00", "meta": {"OBJECT_NAME": "GALAXY 16 (G-16)", "OBJECT_ID": "2006-023A", "EPOCH": "2025-12-07T20:00:44.370432", "MEAN_MOTION": 1.00271142, "ECCENTRICITY": 0.00029877, "INCLINATION": 0.0026, "RA_OF_ASC_NODE": 109.0487, "ARG_OF_PERICENTER": 154.9453, "MEAN_ANOMALY": 14.0345, "EPHEMERIS_TYPE": 0, "CLASSIFICATION_TYPE": "U", "NORAD_CAT_ID": 29236, "ELEMENT_SET_NO": 999, "REV_AT_EPOCH": 7105, "BSTAR": 0, "MEAN_MOTION_DOT": -1.24e-06, "MEAN_MOTION_DDOT": 0}, "tle": {"line1": "1 29236U 06023A   25341.83384688 -.00000124  00000+0  00000+0 0  9992", "line2": "2 29236   0.0026 109.0487 0002987 154.9453  14.0345  1.00271142 71056"}}, "geometry": {"type": "Point", "coordinates": [141.429194424949, -0.0007826290097935041]}}, {"type": "Feature", "properties": {"norad_id": 29494, "name": "DIRECTV 9S", "group": "intelsat", "lat": 1.6084946205411765, "lon": 139.20724160171483, "alt_km": 35792.99761267238, "timestamp": "2025-12-08T10:52:02.616993+00:00", "meta": {"OBJECT_NAME": "DIRECTV 9S", "OBJECT_ID": "2006-043A", "EPOCH": "2025-12-07T21:42:49.592160", "MEAN_MOTION": 1.00270591, "ECCENTRICITY": 0.00032174, "INCLINATION": 1.9274, "RA_OF_ASC_NODE": 83.2575, "ARG_OF_PERICENTER": 175.8027, "MEAN_ANOMALY": 42.3545, "EPHEMERIS_TYPE": 0, "CLASSIFICATION_TYPE": "U", "NORAD_CAT_ID": 29494, "ELEMENT_SET_NO": 999, "REV_AT_EPOCH": 4946, "BSTAR": 0, "MEAN_MOTION_DOT": -1.11e-06, "MEAN_MOTION_DDOT": 0}, "tle": {"line1": "1 29494U 06043A   25341.90474065 -.00000111  00000+0  00000+0 0  9993", "line2": "2 29494   1.9274  83.2575 0003217 175.8027  42.3545  1.00270591 49467"}}, "geometry": {"type": "Point", "coordinates": [139.20724160171483, 1.6084946205411765]}}, {"type": "Feature", "properties": {"norad_id": 31307, "name": "GALAXY 17 (G-17)", "group": "intelsat", "lat": 2.385348801986782, "lon": 155.37520215413704, "alt_km": 35785.3047401716, "timestamp": "2025-12-08T10:52:02.617005+00:00", "meta": {"OBJECT_NAME": "GALAXY 17 (G-17)", "OBJECT_ID": "2007-016B", "EPOCH": "2025-12-07T20:04:43.987008", "MEAN_MOTION": 1.00270175, "ECCENTRICITY": 0.00060149, "INCLINATION": 2.4874, "RA_OF_ASC_NODE": 82.3394, "ARG_OF_PERICENTER": 160.7655, "MEAN_ANOMALY": 49.9245, "EPHEMERIS_TYPE": 0, "CLASSIFICATION_TYPE": "U", "NORAD_CAT_ID": 31307, "ELEMENT_SET_NO": 999, "REV_AT_EPOCH": 6788, "BSTAR": 0, "MEAN_MOTION_DOT": -2.04e-06, "MEAN_MOTION_DDOT": 0}, "tle": {"line1": "1 31307U 07016B   25341.83662022 -.00000204  00000+0  00000+0 0  9997", "line2": "2 31307   2.4874  82.3394 0006014 160.7655  49.9245  1.00270175 67886"}}, "geometry": {"type": "Point", "coordinates": [155.37520215413704, 2.385348801986782]}}, {"type": "Feature", "properties": {"norad_id": 31862, "name": "DIRECTV 10", "group": "intelsat", "lat": -0.00038951961331144065, "lon": 137.6723105890318, "alt_km": 35785.83905524322, "timestamp": "2025-12-08T10:52:02.617017+00:00", "meta": {"OBJECT_NAME": "DIRECTV 10", "OBJECT_ID": "2007-032A", "EPOCH": "2025-12-07T21:42:19.639872", "MEAN_MOTION": 1.00270272, "ECCENTRICITY": 4.621e-05, "INCLINATION": 0.0059, "RA_OF_ASC_NODE": 92.6501, "ARG_OF_PERICENTER": 114.4656, "MEAN_ANOMALY": 92.5999, "EPHEMERIS_TYPE": 0, "CLASSIFICATION_TYPE": "U", "NORAD_CAT_ID": 31862, "ELEMENT_SET_NO": 999, "REV_AT_EPOCH": 4367, "BSTAR": 0, "MEAN_MOTION_DOT": -1e-06, "MEAN_MOTION_DDOT": 0}, "tle": {"line1": "1 31862U 07032A   25341.90439398 -.00000100  00000+0  00000+0 0  9992", "line2": "2 31862   0.0059  92.6501 0000462 114.4656  92.5999  1.00270272 43672"}}, "geometry": {"type": "Point", "coordinates": [137.6723105890318, -0.00038951961331144065]}}, {"type": "Feature", "properties": {"norad_id": 32253, "name": "INTELSAT 11 (IS-11)", "group": "intelsat", "lat": 2.1437720613497016, "lon": 124.89690798712591, "alt_km": 36152.19507147694, "timestamp": "2025-12-08T10:52:02.617029+00:00", "meta": {"OBJECT_NAME": "INTELSAT 11 (IS-11)", "OBJECT_ID": "2007-044B", "EPOCH": "2025-12-07T21:39:12.438720", "MEAN_MOTION": 0.99047473, "ECCENTRICITY": 0.00091913, "INCLINATION": 3.0673, "RA_OF_ASC_NODE": 81.0279, "ARG_OF_PERICENTER": 163.8745, "MEAN_ANOMALY": 43.8037, "EPHEMERIS_TYPE": 0, "CLASSIFICATION_TYPE": "U", "NORAD_CAT_ID": 32253, "ELEMENT_SET_NO": 999, "REV_AT_EPOCH": 6655, "BSTAR": 0, "MEAN_MOTION_DOT": 6.2e-07, "MEAN_MOTION_DDOT": 0}, "tle": {"line1": "1 32253U 07044B   25341.90222730  .00000062  00000+0  00000+0 0  9996", "line2": "2 32253   3.0673  81.0279 0009191 163.8745  43.8037  0.99047473 66557"}}, "geometry": {"type": "Point", "coordinates": [124.89690798712591, 2.1437720613497016]}}, {"type": "Feature", "properties": {"norad_id": 32388, "name": "HORIZONS-2", "group": "intelsat", "lat": 2.0965442966564347, "lon": 166.627029713468, "alt_km": 35790.47800097164, "timestamp": "2025-12-08T10:52:02.617041+00:00", "meta": {"OBJECT_NAME": "HORIZONS-2", "OBJECT_ID": "2007-063B", "EPOCH": "2025-12-07T20:07:58.677312", "MEAN_MOTION": 1.00270849, "ECCENTRICITY": 0.00050634, "INCLINATION": 2.1084, "RA_OF_ASC_NODE": 83.011, "ARG_OF_PERICENTER": 185.4181, "MEAN_ANOMALY": 36.6416, "EPHEMERIS_TYPE": 0, "CLASSIFICATION_TYPE": "U", "NORAD_CAT_ID": 32388, "ELEMENT_SET_NO": 999, "REV_AT_EPOCH": 6589, "BSTAR": 0, "MEAN_MOTION_DOT": -2.51e-06, "MEAN_MOTION_DDOT": 0}, "tle": {"line1": "1 32388U 07063B   25341.83887358 -.00000251  00000+0  00000+0 0  9992", "line2": "2 32388   2.1084  83.0110 0005063 185.4181  36.6416  1.00270849 65891"}}, "geometry": {"type": "Point", "coordinates": [166.627029713468, 2.0965442966564347]}}, {"type": "Feature", "properties": {"norad_id": 32729, "name": "DIRECTV 11", "group": "intelsat", "lat": 2.265744947344076e-05, "lon": 141.25897329616382, "alt_km": 35785.052739386505, "timestamp": "2025-12-08T10:52:02.617053+00:00", "meta": {"OBJECT_NAME": "DIRECTV 11", "OBJECT_ID": "2008-013A", "EPOCH": "2025-12-07T20:00:44.370432", "MEAN_MOTION": 1.00269303, "ECCENTRICITY": 5.914e-05, "INCLINATION": 0.0132, "RA_OF_ASC_NODE": 219.1388, "ARG_OF_PERICENTER": 327.4216, "MEAN_ANOMALY": 91.2778, "EPHEMERIS_TYPE": 0, "CLASSIFICATION_TYPE": "U", "NORAD_CAT_ID": 32729, "ELEMENT_SET_NO": 999, "REV_AT_EPOCH": 4367, "BSTAR": 0, "MEAN_MOTION_DOT": -1.22e-06, "MEAN_MOTION_DDOT": 0}, "tle": {"line1": "1 32729U 08013A   25341.83384688 -.00000122  00000+0  00000+0 0  9992", "line2": "2 32729   0.0132 219.1388 0000591 327.4216  91.2778  1.00269303 43671"}}, "geometry": {"type": "Point", "coordinates": [141.25897329616382, 2.265744947344076e-05]}}, {"type": "Feature", "properties": {"norad_id": 32951, "name": "GALAXY 18 (G-18)", "group": "intelsat", "lat": 0.028524710223404613, "lon": 117.42708406677335, "alt_km": 35797.661771889056, "timestamp": "2025-12-08T10:52:02.617065+00:00", "meta": {"OBJECT_NAME": "GALAXY 18 (G-18)", "OBJECT_ID": "2008-024A", "EPOCH": "2025-12-07T14:45:38.501280", "MEAN_MOTION": 1.00270269, "ECCENTRICITY": 0.00033137, "INCLINATION": 0.0216, "RA_OF_ASC_NODE": 58.2421, "ARG_OF_PERICENTER": 202.2004, "MEAN_ANOMALY": 274.5904, "EPHEMERIS_TYPE": 0, "CLASSIFICATION_TYPE": "U", "NORAD_CAT_ID": 32951, "ELEMENT_SET_NO": 999, "REV_AT_EPOCH": 4393, "BSTAR": 0, "MEAN_MOTION_DOT": 2.9e-07, "MEAN_MOTION_DDOT": 0}, "tle": {"line1": "1 32951U 08024A   25341.61502895  .00000029  00000+0  00000+0 0  9994", "line2": "2 32951   0.0216  58.2421 0003313 202.2004 274.5904  1.00270269 43930"}}, "geometry": {"type": "Point", "coordinates": [117.42708406677335, 0.028524710223404613]}}]}